{
  "type": "FeatureCollection",
  "features": [
    {
      "type": "Feature",
      "properties": {
        "norad_id": 66926,
        "name": "STARLINK-35942",
        "group": "last-30-days",
        "lat": 43.21952561764517,
        "lon": 117.00152190486547,
        "alt_km": 394.95373248550277,
        "timestamp": "2025-12-26T12:57:37.977461+00:00",
        "meta_object_name": "STARLINK-35942",
        "meta_object_id": "2025-286B",
        "meta_epoch": "2025-12-26T06:00:02.999808",
        "meta_mean_motion": 15.56509977,
        "meta_eccentricity": 0.00014726,
        "meta_inclination": 53.1589,
        "meta_ra_of_asc_node": 343.1951,
        "meta_arg_of_pericenter": 90.1321,
        "meta_mean_anomaly": 205.7741,
        "meta_ephemeris_type": 0,
        "meta_classification_type": "U",
        "meta_norad_cat_id": 66926,
        "meta_element_set_no": 999,
        "meta_rev_at_epoch": 416,
        "meta_bstar": -0.031903772,
        "meta_mean_motion_dot": -0.02055121,
        "meta_mean_motion_ddot": 0,
        "tle_line1": "1 66926U 25286B   25360.25003472 -.02055121  00000+0 -31904-1 0  9996",
        "tle_line2": "2 66926  53.1589 343.1951 0001472  90.1321 205.7741 15.56509977  4169"
      },
      "geometry": {
        "type": "Point",
        "coordinates": [
          117.00152190486547,
          43.21952561764517
        ]
      }
    },
    {
      "type": "Feature",
      "properties": {
        "norad_id": 66927,
        "name": "STARLINK-35943",
        "group": "last-30-days",
        "lat": 42.10855084071296,
        "lon": 119.12886606244919,
        "alt_km": 395.1983151071008,
        "timestamp": "2025-12-26T12:57:37.977471+00:00",
        "meta_object_name": "STARLINK-35943",
        "meta_object_id": "2025-286C",
        "meta_epoch": "2025-12-26T06:00:02.999808",
        "meta_mean_motion": 15.56513792,
        "meta_eccentricity": 0.000136,
        "meta_inclination": 53.1588,
        "meta_ra_of_asc_node": 343.1906,
        "meta_arg_of_pericenter": 92.2426,
        "meta_mean_anomaly": 205.5813,
        "meta_ephemeris_type": 0,
        "meta_classification_type": "U",
        "meta_norad_cat_id": 66927,
        "meta_element_set_no": 999,
        "meta_rev_at_epoch": 416,
        "meta_bstar": -0.032021949,
        "meta_mean_motion_dot": -0.02062105,
        "meta_mean_motion_ddot": 0,
        "tle_line1": "1 66927U 25286C   25360.25003472 -.02062105  00000+0 -32022-1 0  9999",
        "tle_line2": "2 66927  53.1588 343.1906 0001360  92.2426 205.5813 15.56513792  4162"
      },
      "geometry": {
        "type": "Point",
        "coordinates": [
          119.12886606244919,
          42.10855084071296
        ]
      }
    },
    {
      "type": "Feature",
      "properties": {
        "norad_id": 66928,
        "name": "STARLINK-35944",
        "group": "last-30-days",
        "lat": 44.28750169466409,
        "lon": 114.79964154238306,
        "alt_km": 394.86389015923214,
        "timestamp": "2025-12-26T12:57:37.977481+00:00",
        "meta_object_name": "STARLINK-35944",
        "meta_object_id": "2025-286D",
        "meta_epoch": "2025-12-26T06:00:02.999808",
        "meta_mean_motion": 15.5651629,
        "meta_eccentricity": 0.0001352,
        "meta_inclination": 53.1593,
        "meta_ra_of_asc_node": 343.1978,
        "meta_arg_of_pericenter": 89.4039,
        "meta_mean_anomaly": 204.587,
        "meta_ephemeris_type": 0,
        "meta_classification_type": "U",
        "meta_norad_cat_id": 66928,
        "meta_element_set_no": 999,
        "meta_rev_at_epoch": 416,
        "meta_bstar": -0.032123643,
        "meta_mean_motion_dot": -0.02068114,
        "meta_mean_motion_ddot": 0,
        "tle_line1": "1 66928U 25286D   25360.25003472 -.02068114  00000+0 -32124-1 0  9999",
        "tle_line2": "2 66928  53.1593 343.1978 0001352  89.4039 204.5870 15.56516290  4165"
      },
      "geometry": {
        "type": "Point",
        "coordinates": [
          114.79964154238306,
          44.28750169466409
        ]
      }
    },
    {
      "type": "Feature",
      "properties": {
        "norad_id": 66929,
        "name": "STARLINK-36169",
        "group": "last-30-days",
        "lat": 40.962565822223326,
        "lon": 121.1774887195518,
        "alt_km": 395.2475091128081,
        "timestamp": "2025-12-26T12:57:37.977493+00:00",
        "meta_object_name": "STARLINK-36169",
        "meta_object_id": "2025-286E",
        "meta_epoch": "2025-12-26T06:00:02.999808",
        "meta_mean_motion": 15.56515337,
        "meta_eccentricity": 0.0001534,
        "meta_inclination": 53.1589,
        "meta_ra_of_asc_node": 343.187,
        "meta_arg_of_pericenter": 95.3971,
        "meta_mean_anomaly": 204.337,
        "meta_ephemeris_type": 0,
        "meta_classification_type": "U",
        "meta_norad_cat_id": 66929,
        "meta_element_set_no": 999,
        "meta_rev_at_epoch": 416,
        "meta_bstar": -0.03196153,
        "meta_mean_motion_dot": -0.02058852,
        "meta_mean_motion_ddot": 0,
        "tle_line1": "1 66929U 25286E   25360.25003472 -.02058852  00000+0 -31962-1 0  9997",
        "tle_line2": "2 66929  53.1589 343.1870 0001534  95.3971 204.3370 15.56515337  4169"
      },
      "geometry": {
        "type": "Point",
        "coordinates": [
          121.1774887195518,
          40.962565822223326
        ]
      }
    },
    {
      "type": "Feature",
      "properties": {
        "norad_id": 66930,
        "name": "STARLINK-36206",
        "group": "last-30-days",
        "lat": 39.77922511140146,
        "lon": 123.15755007977496,
        "alt_km": 395.5884247758813,
        "timestamp": "2025-12-26T12:57:37.977503+00:00",
        "meta_object_name": "STARLINK-36206",
        "meta_object_id": "2025-286F",
        "meta_epoch": "2025-12-26T06:00:02.999808",
        "meta_mean_motion": 15.56511936,
        "meta_eccentricity": 0.0001325,
        "meta_inclination": 53.1589,
        "meta_ra_of_asc_node": 343.1825,
        "meta_arg_of_pericenter": 94.4725,
        "meta_mean_anomaly": 207.1811,
        "meta_ephemeris_type": 0,
        "meta_classification_type": "U",
        "meta_norad_cat_id": 66930,
        "meta_element_set_no": 999,
        "meta_rev_at_epoch": 416,
        "meta_bstar": -0.031882726,
        "meta_mean_motion_dot": -0.0205395,
        "meta_mean_motion_ddot": 0,
        "tle_line1": "1 66930U 25286F   25360.25003472 -.02053950  00000+0 -31883-1 0  9995",
        "tle_line2": "2 66930  53.1589 343.1825 0001325  94.4725 207.1811 15.56511936  4168"
      },
      "geometry": {
        "type": "Point",
        "coordinates": [
          123.15755007977496,
          39.77922511140146
        ]
      }
    },
    {
      "type": "Feature",
      "properties": {
        "norad_id": 66931,
        "name": "STARLINK-36130",
        "group": "last-30-days",
        "lat": 38.56299511272072,
        "lon": 125.0711944799833,
        "alt_km": 395.69489087838883,
        "timestamp": "2025-12-26T12:57:37.977515+00:00",
        "meta_object_name": "STARLINK-36130",
        "meta_object_id": "2025-286G",
        "meta_epoch": "2025-12-26T06:00:02.999808",
        "meta_mean_motion": 15.565135,
        "meta_eccentricity": 0.00015079,
        "meta_inclination": 53.1591,
        "meta_ra_of_asc_node": 343.1789,
        "meta_arg_of_pericenter": 94.0476,
        "meta_mean_anomaly": 209.5221,
        "meta_ephemeris_type": 0,
        "meta_classification_type": "U",
        "meta_norad_cat_id": 66931,
        "meta_element_set_no": 999,
        "meta_rev_at_epoch": 416,
        "meta_bstar": -0.031952527,
        "meta_mean_motion_dot": -0.0205819,
        "meta_mean_motion_ddot": 0,
        "tle_line1": "1 66931U 25286G   25360.25003472 -.02058190  00000+0 -31953-1 0  9995",
        "tle_line2": "2 66931  53.1591 343.1789 0001507  94.0476 209.5221 15.56513500  4162"
      },
      "geometry": {
        "type": "Point",
        "coordinates": [
          125.0711944799833,
          38.56299511272072
        ]
      }
    },
    {
      "type": "Feature",
      "properties": {
        "norad_id": 66932,
        "name": "STARLINK-36177",
        "group": "last-30-days",
        "lat": 37.31736862003052,
        "lon": 126.91759610957797,
        "alt_km": 396.0105246467665,
        "timestamp": "2025-12-26T12:57:37.977525+00:00",
        "meta_object_name": "STARLINK-36177",
        "meta_object_id": "2025-286H",
        "meta_epoch": "2025-12-26T06:00:02.999808",
        "meta_mean_motion": 15.56510575,
        "meta_eccentricity": 0.00013337,
        "meta_inclination": 53.1592,
        "meta_ra_of_asc_node": 343.174,
        "meta_arg_of_pericenter": 94.39,
        "meta_mean_anomaly": 211.098,
        "meta_ephemeris_type": 0,
        "meta_classification_type": "U",
        "meta_norad_cat_id": 66932,
        "meta_element_set_no": 999,
        "meta_rev_at_epoch": 416,
        "meta_bstar": -0.031860407,
        "meta_mean_motion_dot": -0.02052577,
        "meta_mean_motion_ddot": 0,
        "tle_line1": "1 66932U 25286H   25360.25003472 -.02052577  00000+0 -31860-1 0  9996",
        "tle_line2": "2 66932  53.1592 343.1740 0001333  94.3900 211.0980 15.56510575  4162"
      },
      "geometry": {
        "type": "Point",
        "coordinates": [
          126.91759610957797,
          37.31736862003052
        ]
      }
    }
  ]
}